NORAD_CAT_ID,OBJECT_NAME,OBJECT_TYPE,EPOCH,MEAN_MOTION,ECCENTRICITY,INCLINATION,RA_OF_ASC_NODE,ARG_OF_PERICENTER,MEAN_ANOMALY,BSTAR,MEAN_MOTION_DOT,MEAN_MOTION_DDOT,TLE_LINE0,TLE_LINE1,TLE_LINE2,SEMIMAJOR_AXIS,PERIOD,APOGEE,PERIGEE,DECAYED
51890.0,STARLINK-3519,PAYLOAD,2022-12-26 14:49:46,15.0883351,0.0002447,53.2147,207.3024,46.6598,313.4598,2.7262e-05,1.45e-06,0.0,0 STARLINK-3519,1 51890U 22022AQ  22360.61790083  .00000145  00000-0  27262-4 0  9991,2 51890  53.2147 207.3024 0002447  46.6598 313.4598 15.08833510 46759,6917.9,95.438,541.4580000000002,538.072,0.0
51890.0,STARLINK-3519,PAYLOAD,2022-12-26 21:11:19,15.08833629,0.0002468,53.2147,206.1129,47.0234,313.0965,2.431300000000001e-05,9.8e-07,0.0,0 STARLINK-3519,1 51890U 22022AQ  22360.88286196  .00000098  00000-0  24313-4 0  9996,2 51890  53.2147 206.1129 0002468  47.0234 313.0965 15.08833629 46796,6917.9,95.438,541.472,538.058,0.0
51890.0,STARLINK-3519,PAYLOAD,2022-12-27 06:43:38,15.08834504,0.0002504,53.2147,204.3288,47.2411,312.8792,3.955e-05,3.41e-06,0.0,0 STARLINK-3519,1 51890U 22022AQ  22361.28030219  .00000341  00000-0  39550-4 0  9994,2 51890  53.2147 204.3288 0002504  47.2411 312.8792 15.08834504 46857,6917.897,95.438,541.494,538.03,0.0
51890.0,STARLINK-3519,PAYLOAD,2022-12-27 22:37:28,15.08844294,0.00025,53.2151,201.3552,50.1505,309.9707,6.1518e-05,6.91e-06,0.0,0 STARLINK-3519,1 51890U 22022AQ  22361.94269610  .00000691  00000-0  61518-4 0  9993,2 51890  53.2151 201.3552 0002500  50.1505 309.9707 15.08844294 46957,6917.8669999999975,95.437,541.462,538.003,0.0
51890.0,STARLINK-3519,PAYLOAD,2022-12-28 12:55:57,15.08843133,0.0002506999999999,53.2157,198.6796,51.3594,308.7622,6.8463e-05,8.01e-06,0.0,0 STARLINK-3519,1 51890U 22022AQ  22362.53885538  .00000801  00000-0  68463-4 0  9991,2 51890  53.2157 198.6796 0002507  51.3594 308.7622 15.08843133 47044,6917.871,95.437,541.47,538.002,0.0
51890.0,STARLINK-3519,PAYLOAD,2022-12-28 16:06:43,15.088352800000004,0.0002458,53.2143,198.0823,46.9509,313.1688,7.2221e-05,8.61e-06,0.0,0 STARLINK-3519,1 51890U 22022AQ  22362.67134041  .00000861  00000-0  72221-4 0  9995,2 51890  53.2143 198.0823 0002458  46.9509 313.1688 15.08835280 47063,6917.895,95.438,541.46,538.059,0.0
51890.0,STARLINK-3519,PAYLOAD,2022-12-29 01:39:03,15.08832705,0.0002488,53.2147,196.2984,46.9831,313.1369,3.3514e-05,2.45e-06,0.0,0 STARLINK-3519,1 51890U 22022AQ  22363.06878528  .00000245  00000-0  33514-4 0  9992,2 51890  53.2147 196.2984 0002488  46.9831 313.1369 15.08832705 47128,6917.903,95.438,541.489,538.047,0.0
51890.0,STARLINK-3519,PAYLOAD,2022-12-29 22:19:03,15.08841185,0.0002423,53.2146,192.4324,49.2664,310.8539,2.3477e-05,8.5e-07,0.0,0 STARLINK-3519,1 51890U 22022AQ  22363.92990211  .00000085  00000-0  23477-4 0  9990,2 51890  53.2146 192.4324 0002423  49.2664 310.8539 15.08841185 47251,6917.877,95.437,541.418,538.066,0.0
51890.0,STARLINK-3519,PAYLOAD,2022-12-30 12:37:31,15.08837969,0.0002487,53.2144,189.7566,48.5643,311.5562,0.00010957,1.456e-05,0.0,0 STARLINK-3519,1 51890U 22022AQ  22364.52606131  .00001456  00000-0  10957-3 0  9993,2 51890  53.2144 189.7566 0002487  48.5643 311.5562 15.08837969 47344,6917.887,95.438,541.472,538.031,0.0
51890.0,STARLINK-3519,PAYLOAD,2022-12-30 23:45:13,15.08845448,0.0002523,53.2143,187.6751,49.9377,310.1836,0.00017425,2.486e-05,0.0,0 STARLINK-3519,1 51890U 22022AQ  22364.98973700  .00002486  00000-0  17425-3 0  9993,2 51890  53.2143 187.6751 0002523  49.9377 310.1836 15.08845448 47414,6917.864000000001,95.437,541.474,537.9830000000002,0.0
51890.0,STARLINK-3519,PAYLOAD,2022-12-31 12:28:17,15.088502900000002,0.0002546,53.2143,185.2959,51.1618,308.9601,0.00018485,2.656e-05,0.0,0 STARLINK-3519,1 51890U 22022AQ  22365.51965200  .00002656  00000-0  18485-3 0  9995,2 51890  53.2143 185.2959 0002546  51.1618 308.9601 15.08850290 47490,6917.849,95.437,541.475,537.953,0.0
51890.0,STARLINK-3519,PAYLOAD,2022-12-31 18:49:50,15.08846303,0.0002559,53.2135,184.1067,47.9677,312.1532,0.0001349,1.86e-05,0.0,0 STARLINK-3519,1 51890U 22022AQ  22365.78461742  .00001860  00000-0  13490-3 0  9993,2 51890  53.2135 184.1067 0002559  47.9677 312.1532 15.08846303 47536,6917.861,95.437,541.496,537.956,0.0
51890.0,STARLINK-3519,PAYLOAD,2023-01-01 12:19:05,15.08845809,0.0002525,53.2136,180.8349,51.3164,308.8053,5.4444e-05,5.78e-06,0.0,0 STARLINK-3519,1 51890U 22022AQ  23001.51325509  .00000578  00000-0  54444-4 0  9992,2 51890  53.2136 180.8349 0002525  51.3164 308.8053 15.08845809 47648,6917.863,95.437,541.474,537.981,0.0
51890.0,STARLINK-3519,PAYLOAD,2023-01-01 18:40:37,15.08840144,0.0002528,53.2134,179.6453,51.2553,308.8665,-3.2484e-05,-8.05e-06,0.0,0 STARLINK-3519,1 51890U 22022AQ  23001.77821729 -.00000805  00000-0 -32484-4 0  9990,2 51890  53.2134 179.6453 0002528  51.2553 308.8665 15.08840144 47682,6917.88,95.438,541.494,537.996,0.0
51890.0,STARLINK-3519,PAYLOAD,2023-01-01 23:26:47,15.08836516,0.0002518,53.2141,178.7535,49.5606,310.5605,-0.0001064,-1.981e-05,0.0,0 STARLINK-3519,1 51890U 22022AQ  23001.97693921 -.00001981  00000-0 -10640-3 0  9998,2 51890  53.2141 178.7535 0002518  49.5606 310.5605 15.08836516 47715,6917.891,95.438,541.498,538.014,0.0
51890.0,STARLINK-3519,PAYLOAD,2023-01-02 13:45:15,15.08837428,0.0002494,53.2138,176.0772,48.6664,311.4542,-5.632100000000001e-05,-1.185e-05,0.0,0 STARLINK-3519,1 51890U 22022AQ  23002.57309925 -.00001185  00000-0 -56321-4 0  9996,2 51890  53.2138 176.0772 0002494  48.6664 311.4542 15.08837428 47805,6917.888000000001,95.438,541.479,538.028,0.0
51890.0,STARLINK-3519,PAYLOAD,2023-01-02 20:06:48,15.0883163,0.0002515,53.2136,174.8875,49.1678,310.9531,-0.00012885,-2.338e-05,0.0,0 STARLINK-3519,1 51890U 22022AQ  23002.83806320 -.00002338  00000-0 -12885-3 0  9993,2 51890  53.2136 174.8875 0002515  49.1678 310.9531 15.08831630 47843,6917.906,95.438,541.511,538.031,0.0
51890.0,STARLINK-3519,PAYLOAD,2023-01-03 04:03:44,15.08832005,0.0002541,53.2136,173.4007,50.6461,309.4756,-1.1919e-05,-4.78e-06,0.0,0 STARLINK-3519,1 51890U 22022AQ  23003.16926540 -.00000478  00000-0 -11919-4 0  9998,2 51890  53.2136 173.4007 0002541  50.6461 309.4756 15.08832005 47895,6917.905,95.438,541.528,538.012,0.0
51890.0,STARLINK-3519,PAYLOAD,2023-01-03 12:00:40,15.08841444,0.0002459,53.2147,171.9138,48.5602,311.5602,-2.7554e-05,-7.27e-06,0.0,0 STARLINK-3519,1 51890U 22022AQ  23003.50046680 -.00000727  00000-0 -27554-4 0  9993,2 51890  53.2147 171.9138 0002459  48.5602 311.5602 15.08841444 47943,6917.876,95.437,541.442,538.04,0.0
51890.0,STARLINK-3519,PAYLOAD,2023-01-04 03:54:31,15.08837751,0.0002572,53.2136,168.94,50.43,309.6919,0.00018135,2.599e-05,0.0,0 STARLINK-3519,1 51890U 22022AQ  23004.16286735  .00002599  00000-0  18135-3 0  9994,2 51890  53.2136 168.9400 0002572  50.4300 309.6919 15.08837751 48049,6917.887,95.438,541.5319999999998,537.9730000000002,0.0
51890.0,STARLINK-3519,PAYLOAD,2023-01-04 19:48:22,15.08851678,0.0002612,53.2136,165.96599999999995,51.198,308.9245,0.00033571,5.06e-05,0.0,0 STARLINK-3519,1 51890U 22022AQ  23004.82526081  .00005060  00000-0  33571-3 0  9995,2 51890  53.2136 165.9660 0002612  51.1980 308.9245 15.08851678 48140,6917.845,95.437,541.5169999999998,537.903,0.0
51890.0,STARLINK-3519,PAYLOAD,2023-01-05 11:42:13,15.08855047,0.0002535,53.2127,162.99200000000005,53.109,307.0135,0.00019881,2.878e-05,0.0,0 STARLINK-3519,1 51890U 22022AQ  23005.48765423  .00002878  00000-0  19881-3 0  9995,2 51890  53.2127 162.9920 0002535  53.1090 307.0135 15.08855047 48247,6917.834,95.437,541.453,537.946,0.0
51890.0,STARLINK-3519,PAYLOAD,2023-01-05 16:28:22,15.08858687,0.0002501999999999,53.2127,162.0998,53.3642,306.758,0.00024549,3.623e-05,0.0,0 STARLINK-3519,1 51890U 22022AQ  23005.68637093  .00003623  00000-0  24549-3 0  9994,2 51890  53.2127 162.0998 0002502  53.3642 306.7580 15.08858687 48278,6917.823,95.436,541.419,537.957,0.0
51890.0,STARLINK-3519,PAYLOAD,2023-01-06 11:33:00,15.0884117,0.000252,53.2126,158.5315,52.3277,307.7944,-0.00012328,-2.25e-05,0.0,0 STARLINK-3519,1 51890U 22022AQ  23006.48125166 -.00002250  00000-0 -12328-3 0  9995,2 51890  53.2126 158.5315 0002520  52.3277 307.7944 15.08841170 48390,6917.877,95.437,541.485,537.999,0.0
51890.0,STARLINK-3519,PAYLOAD,2023-01-07 03:26:51,15.08845212,0.0002498,53.2128,155.5569,54.107,306.0154,0.00031762,4.771e-05,0.0,0 STARLINK-3519,1 51890U 22022AQ  23007.14365142  .00004771  00000-0  31762-3 0  9990,2 51890  53.2128 155.5569 0002498  54.1070 306.0154 15.08845212 48492,6917.864000000001,95.437,541.4580000000002,538.001,0.0
51890.0,STARLINK-3519,PAYLOAD,2023-01-07 11:23:47,15.08844629,0.0002412,53.2133,154.0699,55.8942,304.2278,0.000133,1.829e-05,0.0,0 STARLINK-3519,1 51890U 22022AQ  23007.47485102  .00001829  00000-0  13300-3 0  9994,2 51890  53.2133 154.0699 0002412  55.8942 304.2278 15.08844629 48542,6917.866,95.437,541.4,538.063,0.0
51890.0,STARLINK-3519,PAYLOAD,2023-01-08 11:14:34,15.08839133,0.0002465,53.2144,149.6111,52.3116,307.8099,0.00016177,2.287e-05,0.0,0 STARLINK-3519,1 51890U 22022AQ  23008.46845629  .00002287  00000-0  16177-3 0  9992,2 51890  53.2144 149.6111 0002465  52.3116 307.8099 15.08839133 48696,6917.883000000002,95.438,541.453,538.043,0.0
51890.0,STARLINK-3519,PAYLOAD,2023-01-08 19:11:30,15.08844564,0.0002327,53.2159,148.1263,50.0792,310.0404,0.0002175,3.175e-05,0.0,0 STARLINK-3519,1 51890U 22022AQ  23008.79965471  .00003175  00000-0  21750-3 0  9996,2 51890  53.2159 148.1263 0002327  50.0792 310.0404 15.08844564 48742,6917.866,95.437,541.341,538.122,0.0
51890.0,STARLINK-3519,PAYLOAD,2023-01-09 11:05:21,15.0883613,0.0002373,53.2153,145.1519,45.697,314.4216,7.5144e-05,9.08e-06,0.0,0 STARLINK-3519,1 51890U 22022AQ  23009.46205765  .00000908  00000-0  75144-4 0  9992,2 51890  53.2153 145.1519 0002373  45.6970 314.4216 15.08836130 48846,6917.892,95.438,541.399,538.116,0.0
